{"type": "FeatureCollection", "features": [{"type": "Feature", "geometry": {"type": "Polygon", "coordinates": [[[139.590823, 35.709131], [139.58673, 35.711717], [139.586939, 35.713248], [139.585088, 35.716994], [139.586772, 35.719554], [139.590253, 35.720272], [139.593939, 35.718094], [139.595781, 35.722043], [139.604124, 35.726759], [139.620219, 35.731427], [139.619901, 35.730246], [139.624463, 35.730086], [139.628136, 35.721875], [139.629511, 35.72039], [139.630406, 35.720855], [139.631573, 35.719908], [139.631112, 35.718435], [139.632032, 35.717101], [139.637013, 35.716569], [139.641562, 35.714898], [139.641417, 35.712742], [139.642703, 35.711716], [139.65099, 35.709031], [139.657949, 35.709244], [139.658046, 35.705194], [139.661014, 35.704811], [139.660733, 35.701376], [139.66239, 35.69884], [139.661933, 35.697004], [139.660376, 35.69646], [139.660972, 35.6948], [139.664597, 35.69548], [139.667399, 35.693627], [139.667799, 35.69137], [139.662402, 35.687435], [139.659173, 35.686695], [139.660527, 35.684219], [139.659279, 35.683189], [139.660624, 35.681148], [139.659443, 35.679991], [139.663913, 35.67961], [139.664763, 35.677976], [139.663399, 35.677993], [139.664027, 35.676561], [139.661793, 35.675568], [139.661519, 35.67278], [139.641367, 35.667544], [139.641501, 35.666682], [139.639348, 35.665883], [139.636839, 35.666116], [139.632698, 35.668215], [139.624868, 35.669259], [139.624791, 35.670348], [139.623157, 35.670609], [139.621475, 35.672644], [139.610712, 35.676509], [139.613507, 35.673739], [139.613433, 35.672798], [139.616676, 35.67255], [139.616474, 35.669883], [139.615354, 35.669015], [139.615715, 35.669575], [139.614765, 35.669155], [139.613627, 35.670623], [139.609198, 35.670212], [139.609294, 35.674717], [139.608489, 35.676434], [139.607485, 35.676015], [139.602957, 35.680654], [139.592843, 35.682931], [139.592542, 35.685147], [139.590552, 35.686885], [139.592861, 35.688011], [139.592823, 35.688999], [139.593841, 35.688835], [139.58675, 35.694147], [139.58815, 35.695587], [139.590131, 35.694794], [139.595505, 35.705678], [139.590823, 35.709131]]]}, "properties": {"ward": "Suginami", "wardJa": "杉並区", "centroidLat": 35.6995, "centroidLon": 139.6365}}, {"type": "Feature", "geometry": {"type": "Polygon", "coordinates": [[[139.68663, 35.696386], [139.688357, 35.699147], [139.687405, 35.702825], [139.688308, 35.706926], [139.694286, 35.711027], [139.691111, 35.71049], [139.688346, 35.711194], [139.682762, 35.710007], [139.680028, 35.711053], [139.682025, 35.713302], [139.680993, 35.713266], [139.681841, 35.714132], [139.679184, 35.714771], [139.678917, 35.718131], [139.675303, 35.720038], [139.675284, 35.719085], [139.673445, 35.718484], [139.673539, 35.720614], [139.675712, 35.721375], [139.67576, 35.725855], [139.676817, 35.729904], [139.677527, 35.729561], [139.67799, 35.73062], [139.674932, 35.73301], [139.67125, 35.73371], [139.668, 35.731355], [139.664976, 35.73133], [139.663191, 35.727894], [139.659665, 35.726762], [139.659694, 35.725725], [139.650287, 35.726861], [139.647503, 35.726633], [139.647509, 35.72536], [139.643757, 35.725156], [139.639623, 35.726166], [139.639708, 35.727406], [139.637873, 35.728484], [139.636623, 35.731978], [139.635169, 35.732203], [139.63351, 35.735455], [139.627237, 35.735027], [139.624286, 35.729545], [139.628797, 35.720972], [139.631573, 35.719908], [139.631112, 35.718435], [139.632032, 35.717101], [139.637013, 35.716569], [139.641562, 35.714898], [139.641417, 35.712742], [139.642703, 35.711716], [139.65099, 35.709031], [139.657949, 35.709244], [139.658046, 35.705194], [139.661014, 35.704811], [139.660733, 35.701376], [139.662409, 35.698459], [139.661933, 35.697004], [139.660376, 35.69646], [139.660972, 35.6948], [139.664969, 35.695365], [139.66735, 35.69373], [139.667799, 35.69137], [139.662402, 35.687435], [139.659173, 35.686695], [139.660527, 35.684219], [139.659279, 35.683189], [139.660624, 35.681148], [139.659443, 35.679991], [139.663913, 35.67961], [139.663837, 35.678863], [139.664803, 35.678924], [139.664585, 35.677747], [139.663399, 35.677993], [139.664027, 35.676561], [139.667452, 35.679921], [139.674198, 35.683646], [139.683741, 35.692112], [139.68663, 35.696386]]]}, "properties": {"ward": "Nakano", "wardJa": "中野区", "centroidLat": 35.7074, "centroidLon": 139.6638}}, {"type": "Feature", "geometry": {"type": "Polygon", "coordinates": [[[139.735547, 35.709231], [139.735312, 35.708137], [139.732494, 35.707485], [139.731354, 35.708088], [139.731574, 35.709381], [139.723716, 35.709957], [139.722052, 35.71156], [139.72243, 35.712301], [139.720837, 35.712797], [139.714649, 35.71311], [139.711946, 35.714801], [139.710308, 35.713561], [139.706054, 35.713529], [139.704186, 35.714767], [139.70565, 35.716661], [139.705771, 35.71857], [139.704529, 35.720133], [139.705825, 35.721479], [139.704305, 35.722216], [139.704689, 35.722792], [139.69991, 35.723496], [139.69797, 35.72213], [139.684395, 35.722688], [139.684213, 35.723763], [139.682196, 35.723888], [139.681211, 35.727392], [139.676817, 35.729904], [139.675346, 35.724152], [139.675712, 35.721375], [139.674568, 35.721377], [139.673275, 35.719664], [139.673445, 35.718484], [139.675284, 35.719085], [139.675303, 35.720038], [139.678917, 35.718131], [139.679184, 35.714771], [139.681841, 35.714132], [139.680993, 35.713266], [139.682025, 35.713302], [139.680028, 35.711053], [139.682762, 35.710007], [139.688346, 35.711194], [139.691111, 35.71049], [139.694286, 35.711027], [139.688308, 35.706926], [139.687405, 35.702825], [139.688305, 35.698957], [139.685399, 35.693993], [139.683543, 35.692566], [139.684868, 35.69144], [139.683158, 35.688629], [139.684032, 35.687429], [139.685739, 35.687765], [139.684773, 35.685859], [139.687441, 35.681722], [139.694607, 35.686642], [139.702154, 35.689345], [139.701944, 35.688316], [139.702786, 35.687898], [139.705541, 35.687832], [139.707006, 35.684641], [139.713706, 35.681684], [139.7145, 35.680748], [139.712699, 35.674422], [139.714852, 35.674899], [139.716274, 35.673221], [139.719862, 35.675339], [139.719164, 35.678573], [139.719777, 35.679163], [139.724141, 35.678677], [139.725988, 35.67944], [139.728154, 35.682649], [139.730002, 35.682487], [139.730792, 35.681115], [139.731765, 35.681444], [139.730135, 35.685017], [139.73131, 35.68876], [139.73782, 35.693454], [139.743468, 35.700119], [139.744308, 35.701359], [139.743615, 35.701687], [139.745139, 35.702529], [139.743045, 35.70805], [139.735547, 35.709231]]]}, "properties": {"ward": "Shinjuku", "wardJa": "新宿区", "centroidLat": 35.6938, "centroidLon": 139.7036}}, {"type": "Feature", "geometry": {"type": "Polygon", "coordinates": [[[139.76227, 35.701237], [139.749111, 35.702928], [139.745139, 35.702529], [139.742762, 35.708167], [139.735547, 35.709231], [139.735312, 35.708137], [139.732494, 35.707485], [139.731354, 35.708088], [139.731574, 35.709381], [139.723716, 35.709957], [139.7221, 35.712621], [139.717261, 35.71461], [139.717735, 35.717355], [139.725046, 35.719785], [139.723229, 35.722298], [139.722678, 35.725029], [139.725363, 35.726096], [139.72468, 35.726662], [139.726359, 35.727067], [139.729342, 35.725542], [139.729911, 35.726265], [139.731963, 35.724106], [139.733014, 35.725344], [139.735579, 35.724929], [139.735362, 35.726066], [139.737441, 35.726858], [139.735499, 35.729247], [139.736421, 35.730517], [139.738802, 35.731985], [139.740764, 35.730221], [139.741697, 35.730747], [139.743429, 35.732697], [139.742323, 35.733558], [139.743043, 35.734715], [139.745292, 35.73591], [139.747613, 35.735172], [139.748953, 35.732832], [139.752657, 35.735268], [139.76015, 35.731711], [139.761351, 35.732394], [139.764845, 35.72762], [139.763549, 35.721575], [139.768747, 35.715727], [139.764436, 35.717212], [139.76595, 35.715696], [139.765641, 35.713544], [139.76779, 35.71258], [139.766853, 35.711299], [139.768096, 35.710336], [139.766635, 35.710387], [139.76659, 35.708628], [139.771473, 35.709144], [139.772462, 35.708144], [139.772299, 35.707174], [139.770079, 35.707353], [139.769856, 35.703713], [139.766562, 35.702701], [139.766951, 35.701053], [139.76867, 35.700544], [139.768323, 35.699489], [139.763456, 35.700261], [139.76227, 35.701237]]]}, "properties": {"ward": "Bunkyo", "wardJa": "文京区", "centroidLat": 35.7081, "centroidLon": 139.7524}}, {"type": "Feature", "geometry": {"type": "Polygon", "coordinates": [[[139.764927, 35.717521], [139.768747, 35.715727], [139.763416, 35.7219], [139.764845, 35.72762], [139.762304, 35.731618], [139.765095, 35.730257], [139.765794, 35.727693], [139.769929, 35.728126], [139.772973, 35.725958], [139.774119, 35.726591], [139.7795, 35.724829], [139.78128, 35.724783], [139.783749, 35.727603], [139.789075, 35.728321], [139.791523, 35.731312], [139.792733, 35.730079], [139.794285, 35.730339], [139.795167, 35.728925], [139.801427, 35.729172], [139.809803, 35.728033], [139.807323, 35.71813], [139.797995, 35.709027], [139.788896, 35.694803], [139.782733, 35.696614], [139.782848, 35.697627], [139.780164, 35.697844], [139.780561, 35.70015], [139.775574, 35.700588], [139.775653, 35.701523], [139.773393, 35.701753], [139.773268, 35.705006], [139.769958, 35.705235], [139.770079, 35.707353], [139.772299, 35.707174], [139.772449, 35.708312], [139.771473, 35.709144], [139.76659, 35.708628], [139.766635, 35.710387], [139.768038, 35.710256], [139.768097, 35.711043], [139.766853, 35.711299], [139.767714, 35.712796], [139.765641, 35.713544], [139.766016, 35.715467], [139.764927, 35.717521]]]}, "properties": {"ward": "Taito", "wardJa": "台東区", "centroidLat": 35.7126, "centroidLon": 139.78}}, {"type": "Feature", "geometry": {"type": "Polygon", "coordinates": [[[139.800579, 35.688136], [139.799567, 35.689919], [139.796772, 35.688534], [139.796399, 35.689915], [139.793449, 35.690717], [139.79047, 35.689212], [139.789047, 35.691412], [139.788896, 35.694803], [139.797995, 35.709027], [139.807323, 35.71813], [139.809363, 35.724004], [139.810047, 35.730285], [139.814479, 35.736521], [139.814463, 35.739454], [139.817895, 35.74257], [139.820296, 35.743506], [139.825369, 35.73545], [139.84284, 35.719015], [139.839202, 35.716795], [139.837291, 35.717917], [139.834991, 35.717783], [139.833186, 35.71581], [139.834531, 35.713044], [139.839395, 35.710905], [139.839776, 35.709896], [139.834642, 35.705596], [139.834872, 35.702941], [139.830789, 35.703006], [139.81864, 35.708092], [139.819646, 35.693326], [139.813243, 35.692973], [139.813314, 35.692178], [139.811365, 35.692072], [139.811726, 35.688779], [139.809415, 35.688587], [139.809558, 35.686944], [139.804848, 35.686699], [139.8047, 35.688347], [139.800579, 35.688136]]]}, "properties": {"ward": "Sumida", "wardJa": "墨田区", "centroidLat": 35.7107, "centroidLon": 139.8015}}, {"type": "Feature", "geometry": {"type": "Polygon", "coordinates": [[[139.788815, 35.663407], [139.786785, 35.674137], [139.78937, 35.6795], [139.792678, 35.683542], [139.792985, 35.685951], [139.789047, 35.691412], [139.788896, 35.694803], [139.782733, 35.696614], [139.781605, 35.695247], [139.782757, 35.694664], [139.780287, 35.692839], [139.767935, 35.688591], [139.77116, 35.684337], [139.767097, 35.677018], [139.763889, 35.673351], [139.760642, 35.672328], [139.758755, 35.669133], [139.758952, 35.668212], [139.762204, 35.666975], [139.763287, 35.664832], [139.759521, 35.658997], [139.765965, 35.655477], [139.764096, 35.648258], [139.768166, 35.640201], [139.789773, 35.654184], [139.788815, 35.663407]]]}, "properties": {"ward": "Chuo", "wardJa": "中央区", "centroidLat": 35.6706, "centroidLon": 139.772}}, {"type": "Feature", "geometry": {"type": "Polygon", "coordinates": [[[139.714519, 35.629195], [139.704069, 35.624772], [139.700855, 35.626132], [139.696218, 35.624955], [139.703976, 35.622022], [139.698322, 35.615236], [139.695799, 35.613594], [139.695603, 35.608163], [139.69142, 35.611091], [139.686157, 35.611691], [139.684213, 35.613079], [139.685178, 35.606889], [139.684297, 35.602236], [139.683078, 35.602578], [139.682853, 35.603986], [139.680614, 35.604127], [139.681145, 35.600664], [139.680266, 35.600615], [139.679498, 35.605407], [139.677011, 35.608152], [139.673207, 35.608182], [139.668159, 35.606518], [139.663304, 35.608539], [139.664034, 35.609864], [139.66284, 35.611797], [139.663352, 35.612559], [139.662668, 35.612541], [139.663091, 35.615196], [139.664597, 35.616481], [139.664801, 35.618378], [139.666384, 35.618581], [139.665696, 35.620527], [139.666443, 35.620856], [139.664143, 35.623636], [139.663452, 35.626776], [139.661806, 35.627484], [139.662486, 35.630281], [139.661608, 35.631945], [139.664498, 35.632017], [139.672074, 35.629954], [139.679387, 35.625052], [139.686615, 35.63939], [139.684243, 35.642548], [139.685018, 35.642796], [139.684149, 35.644595], [139.685564, 35.645046], [139.684373, 35.646001], [139.684687, 35.651388], [139.68246, 35.652266], [139.684154, 35.652847], [139.682952, 35.65305], [139.683155, 35.654514], [139.681864, 35.654491], [139.681773, 35.655596], [139.680597, 35.655677], [139.677799, 35.659706], [139.676688, 35.659904], [139.674953, 35.664115], [139.6797, 35.664028], [139.687361, 35.661611], [139.696089, 35.650844], [139.70879, 35.642109], [139.713537, 35.641656], [139.715081, 35.642037], [139.715337, 35.643061], [139.71775, 35.641577], [139.71559, 35.640641], [139.713957, 35.638102], [139.713197, 35.638632], [139.713837, 35.638086], [139.713407, 35.635528], [139.714631, 35.634262], [139.714275, 35.631559], [139.715209, 35.630012], [139.714519, 35.629195]]]}, "properties": {"ward": "Meguro", "wardJa": "目黒区", "centroidLat": 35.6413, "centroidLon": 139.6982}}, {"type": "Feature", "geometry": {"type": "Polygon", "coordinates": [[[139.695187, 35.608106], [139.697414, 35.604572], [139.700869, 35.601602], [139.714873, 35.599906], [139.714029, 35.599152], [139.714525, 35.597432], [139.717577, 35.596507], [139.719154, 35.592021], [139.720991, 35.594431], [139.728079, 35.594548], [139.730385, 35.592156], [139.729249, 35.589586], [139.729909, 35.587279], [139.735767, 35.587243], [139.735773, 35.587933], [139.738264, 35.587729], [139.747966, 35.590594], [139.748489, 35.588863], [139.75055, 35.589876], [139.755256, 35.589717], [139.755422, 35.584491], [139.762898, 35.584665], [139.762328, 35.594946], [139.765336, 35.594886], [139.767099, 35.592535], [139.779902, 35.599025], [139.784451, 35.591295], [139.788571, 35.58887], [139.804437, 35.597683], [139.811706, 35.588649], [139.797422, 35.580991], [139.857815, 35.530828], [139.857751, 35.481656], [139.818481, 35.507348], [139.810824, 35.514569], [139.767968, 35.539415], [139.756838, 35.544562], [139.750043, 35.544745], [139.746774, 35.543828], [139.739399, 35.545103], [139.733747, 35.540866], [139.730353, 35.542914], [139.726561, 35.543575], [139.718201, 35.538305], [139.710136, 35.536457], [139.704294, 35.536371], [139.700371, 35.538118], [139.698132, 35.541124], [139.698072, 35.544725], [139.703531, 35.549411], [139.703733, 35.552607], [139.699338, 35.555688], [139.690008, 35.55713], [139.678787, 35.562987], [139.675987, 35.566884], [139.668706, 35.58559], [139.663799, 35.589805], [139.655494, 35.589977], [139.656981, 35.593192], [139.658215, 35.593461], [139.652825, 35.595989], [139.653629, 35.597284], [139.655592, 35.596459], [139.659316, 35.60001], [139.662684, 35.598596], [139.664135, 35.599769], [139.665013, 35.598745], [139.667203, 35.599517], [139.668925, 35.59816], [139.669842, 35.599233], [139.675974, 35.59174], [139.680807, 35.594849], [139.680614, 35.604127], [139.682853, 35.603986], [139.683078, 35.602578], [139.684297, 35.602236], [139.685178, 35.606889], [139.684213, 35.613079], [139.686157, 35.611691], [139.69142, 35.611091], [139.695187, 35.608106]]]}, "properties": {"ward": "Ota", "wardJa": "大田区", "centroidLat": 35.5614, "centroidLon": 139.7161}}, {"type": "Feature", "geometry": {"type": "Polygon", "coordinates": [[[139.655494, 35.589977], [139.656981, 35.593192], [139.658215, 35.593461], [139.652825, 35.595989], [139.653629, 35.597284], [139.655592, 35.596459], [139.659316, 35.60001], [139.662684, 35.598596], [139.664135, 35.599769], [139.665013, 35.598745], [139.667203, 35.599517], [139.668925, 35.59816], [139.669842, 35.599233], [139.675974, 35.59174], [139.680836, 35.594966], [139.680195, 35.603029], [139.67928, 35.605792], [139.677198, 35.608043], [139.673429, 35.60822], [139.667318, 35.60662], [139.663304, 35.608539], [139.664034, 35.609864], [139.66284, 35.611797], [139.663352, 35.612559], [139.662668, 35.612541], [139.664801, 35.618378], [139.666384, 35.618581], [139.665696, 35.620527], [139.666443, 35.620856], [139.664143, 35.623636], [139.663452, 35.626776], [139.661806, 35.627484], [139.662486, 35.630281], [139.661608, 35.631945], [139.664498, 35.632017], [139.672074, 35.629954], [139.679387, 35.625052], [139.686615, 35.63939], [139.684243, 35.642548], [139.685018, 35.642796], [139.684149, 35.644595], [139.685564, 35.645046], [139.684373, 35.646001], [139.684687, 35.651388], [139.68246, 35.652266], [139.684154, 35.652847], [139.682952, 35.65305], [139.683155, 35.654514], [139.681864, 35.654491], [139.681773, 35.655596], [139.680597, 35.655677], [139.677799, 35.659706], [139.676688, 35.659904], [139.675959, 35.662783], [139.673185, 35.667031], [139.672821, 35.672206], [139.663164, 35.671426], [139.661611, 35.671562], [139.661519, 35.67278], [139.650197, 35.670168], [139.645759, 35.668197], [139.641367, 35.667544], [139.641501, 35.666682], [139.639348, 35.665883], [139.637688, 35.665968], [139.632698, 35.668215], [139.624868, 35.669259], [139.624791, 35.670348], [139.623157, 35.670609], [139.621475, 35.672644], [139.610712, 35.676509], [139.613507, 35.673739], [139.613433, 35.672798], [139.616676, 35.67255], [139.616474, 35.669883], [139.615354, 35.669015], [139.615715, 35.669575], [139.614765, 35.669155], [139.613627, 35.670623], [139.609198, 35.670212], [139.609294, 35.674717], [139.608489, 35.676434], [139.607485, 35.676015], [139.602957, 35.680654], [139.597092, 35.682144], [139.585147, 35.68276], [139.59197, 35.681796], [139.585143, 35.68248], [139.588673, 35.679364], [139.586602, 35.677388], [139.586997, 35.674793], [139.587919, 35.674426], [139.582673, 35.67445], [139.582386, 35.673349], [139.588698, 35.670622], [139.590108, 35.665998], [139.586928, 35.663801], [139.590128, 35.66125], [139.590102, 35.656459], [139.591028, 35.655222], [139.592431, 35.655368], [139.593175, 35.652585], [139.593295, 35.651535], [139.592071, 35.651623], [139.592263, 35.645987], [139.589773, 35.64504], [139.586811, 35.6462], [139.587231, 35.643993], [139.584267, 35.641192], [139.587526, 35.635178], [139.591515, 35.632887], [139.591171, 35.630987], [139.59285, 35.629611], [139.592181, 35.627493], [139.594168, 35.627076], [139.59245, 35.62375], [139.589651, 35.624571], [139.589874, 35.6217], [139.589178, 35.621399], [139.590303, 35.618357], [139.59245, 35.617508], [139.598988, 35.618548], [139.60566, 35.615582], [139.608929, 35.616517], [139.612121, 35.615915], [139.6156, 35.613283], [139.618321, 35.6137], [139.624103, 35.610959], [139.625433, 35.609408], [139.631137, 35.607347], [139.632831, 35.604975], [139.637055, 35.602934], [139.63985, 35.600181], [139.648762, 35.59504], [139.65043, 35.592584], [139.655494, 35.589977]]]}, "properties": {"ward": "Setagaya", "wardJa": "世田谷区", "centroidLat": 35.6464, "centroidLon": 139.6533}}, {"type": "Feature", "geometry": {"type": "Polygon", "coordinates": [[[139.721807, 35.652315], [139.722844, 35.647848], [139.723926, 35.646729], [139.72273, 35.644643], [139.720974, 35.644134], [139.719284, 35.641485], [139.716748, 35.641732], [139.715337, 35.643061], [139.715081, 35.642037], [139.711923, 35.642316], [139.710262, 35.641501], [139.70025, 35.647326], [139.696089, 35.650844], [139.687361, 35.661611], [139.6797, 35.664028], [139.674713, 35.664242], [139.672469, 35.669808], [139.672821, 35.672206], [139.661611, 35.671562], [139.661378, 35.674604], [139.661882, 35.675673], [139.665314, 35.677065], [139.667452, 35.679921], [139.674198, 35.683646], [139.683524, 35.692101], [139.684868, 35.69144], [139.683158, 35.688629], [139.684032, 35.687429], [139.685739, 35.687765], [139.684773, 35.685859], [139.687441, 35.681722], [139.694607, 35.686642], [139.702154, 35.689345], [139.701944, 35.688316], [139.702786, 35.687898], [139.705541, 35.687832], [139.707006, 35.684641], [139.711271, 35.683338], [139.7145, 35.680748], [139.712699, 35.674422], [139.714852, 35.674899], [139.716689, 35.672425], [139.714837, 35.672949], [139.714002, 35.67036], [139.715095, 35.669645], [139.708744, 35.664182], [139.713971, 35.659744], [139.712619, 35.65859], [139.7146, 35.657216], [139.722081, 35.655747], [139.722965, 35.656366], [139.721807, 35.652315]]]}, "properties": {"ward": "Shibuya", "wardJa": "渋谷区", "centroidLat": 35.664, "centroidLon": 139.6982}}, {"type": "Feature", "geometry": {"type": "Polygon", "coordinates": [[[139.741697, 35.730747], [139.743429, 35.732697], [139.742323, 35.733558], [139.743043, 35.734715], [139.745292, 35.73591], [139.747613, 35.735172], [139.748953, 35.732832], [139.75259, 35.735248], [139.749707, 35.736582], [139.74678, 35.739886], [139.746325, 35.738766], [139.744066, 35.738894], [139.744671, 35.740804], [139.741147, 35.742332], [139.735041, 35.740635], [139.731964, 35.743217], [139.732837, 35.74498], [139.727878, 35.745115], [139.724586, 35.740628], [139.725597, 35.739666], [139.72404, 35.739644], [139.720114, 35.741951], [139.719774, 35.745125], [139.710467, 35.745984], [139.708372, 35.742055], [139.703964, 35.737467], [139.703582, 35.735779], [139.701893, 35.7362], [139.700777, 35.74005], [139.699066, 35.739888], [139.698696, 35.742301], [139.694653, 35.74212], [139.694653, 35.743067], [139.692706, 35.743478], [139.689529, 35.741208], [139.681083, 35.738754], [139.678555, 35.734468], [139.679164, 35.732762], [139.677649, 35.731772], [139.678369, 35.731034], [139.677527, 35.729561], [139.681341, 35.727263], [139.682196, 35.723888], [139.684213, 35.723763], [139.684395, 35.722688], [139.69797, 35.72213], [139.69991, 35.723496], [139.704689, 35.722792], [139.704305, 35.722216], [139.705825, 35.721479], [139.704529, 35.720133], [139.705771, 35.71857], [139.70565, 35.716661], [139.704186, 35.714767], [139.705805, 35.713621], [139.710308, 35.713561], [139.711946, 35.714801], [139.714649, 35.71311], [139.715746, 35.713649], [139.720127, 35.712297], [139.7221, 35.712621], [139.717261, 35.71461], [139.717735, 35.717355], [139.725046, 35.719785], [139.723229, 35.722298], [139.722678, 35.725029], [139.726359, 35.727067], [139.729342, 35.725542], [139.729911, 35.726265], [139.731963, 35.724106], [139.733014, 35.725344], [139.735579, 35.724929], [139.735362, 35.726066], [139.737441, 35.726858], [139.735499, 35.729247], [139.736421, 35.730517], [139.738802, 35.731985], [139.740764, 35.730221], [139.741697, 35.730747]]]}, "properties": {"ward": "Toshima", "wardJa": "豊島区", "centroidLat": 35.7261, "centroidLon": 139.717}}, {"type": "Feature", "geometry": {"type": "Polygon", "coordinates": [[[139.729108, 35.744978], [139.732837, 35.74498], [139.731964, 35.743217], [139.735041, 35.740635], [139.741147, 35.742332], [139.744269, 35.741106], [139.744066, 35.738894], [139.746325, 35.738766], [139.74678, 35.739886], [139.749878, 35.736471], [139.76015, 35.731711], [139.761819, 35.732902], [139.761486, 35.733763], [139.763615, 35.733748], [139.764442, 35.734627], [139.763767, 35.735389], [139.7707, 35.737912], [139.768688, 35.739234], [139.768232, 35.741401], [139.764443, 35.742481], [139.764089, 35.744099], [139.760128, 35.743431], [139.757197, 35.745217], [139.757973, 35.747471], [139.755359, 35.74749], [139.755234, 35.748894], [139.749636, 35.750287], [139.751024, 35.753609], [139.757263, 35.753162], [139.75777, 35.754846], [139.749806, 35.756586], [139.748212, 35.75918], [139.760158, 35.765597], [139.759675, 35.767461], [139.758521, 35.769051], [139.746387, 35.767055], [139.73632, 35.770462], [139.735691, 35.772419], [139.738468, 35.778638], [139.739087, 35.786859], [139.73604, 35.789108], [139.732645, 35.789831], [139.724679, 35.787149], [139.723048, 35.788124], [139.722474, 35.790632], [139.721146, 35.791439], [139.706337, 35.793061], [139.697263, 35.798647], [139.696996, 35.796188], [139.694617, 35.795595], [139.690633, 35.790573], [139.689465, 35.786797], [139.691275, 35.784409], [139.69565, 35.782459], [139.698437, 35.782127], [139.702406, 35.784282], [139.70289, 35.783729], [139.702551, 35.781463], [139.706596, 35.767051], [139.70813, 35.765379], [139.709118, 35.765628], [139.710329, 35.763412], [139.713155, 35.763269], [139.716292, 35.760724], [139.72114, 35.755423], [139.720223, 35.755022], [139.722406, 35.753549], [139.722213, 35.747458], [139.721323, 35.747465], [139.72123, 35.746286], [139.720192, 35.746735], [139.719632, 35.745175], [139.720114, 35.741951], [139.72404, 35.739644], [139.725597, 35.739666], [139.724586, 35.740628], [139.727878, 35.745115], [139.729108, 35.744978]]]}, "properties": {"ward": "Kita", "wardJa": "北区", "centroidLat": 35.7528, "centroidLon": 139.7336}}, {"type": "Feature", "geometry": {"type": "Polygon", "coordinates": [[[139.809803, 35.728033], [139.810788, 35.731889], [139.814479, 35.736521], [139.814098, 35.740258], [139.811176, 35.741228], [139.802331, 35.738659], [139.792656, 35.740598], [139.788485, 35.745321], [139.7888, 35.747286], [139.791439, 35.749706], [139.788802, 35.752712], [139.782306, 35.754074], [139.769529, 35.753574], [139.75777, 35.754846], [139.757263, 35.753162], [139.751024, 35.753609], [139.74956, 35.751428], [139.749636, 35.750287], [139.751035, 35.749514], [139.755234, 35.748894], [139.755359, 35.74749], [139.757973, 35.747471], [139.757197, 35.745217], [139.760128, 35.743431], [139.764089, 35.744099], [139.764443, 35.742481], [139.768232, 35.741401], [139.768688, 35.739234], [139.770633, 35.738386], [139.763767, 35.735389], [139.764442, 35.734627], [139.763269, 35.733527], [139.761486, 35.733763], [139.761519, 35.731959], [139.765095, 35.730257], [139.765794, 35.727693], [139.769929, 35.728126], [139.772973, 35.725958], [139.774119, 35.726591], [139.77656, 35.725345], [139.78128, 35.724783], [139.783749, 35.727603], [139.789366, 35.728487], [139.791523, 35.731312], [139.792733, 35.730079], [139.794285, 35.730339], [139.795167, 35.728925], [139.801427, 35.729172], [139.809803, 35.728033]]]}, "properties": {"ward": "Arakawa", "wardJa": "荒川区", "centroidLat": 35.7361, "centroidLon": 139.7833}}, {"type": "Feature", "geometry": {"type": "Polygon", "coordinates": [[[139.706482, 35.767889], [139.710329, 35.763412], [139.713155, 35.763269], [139.72114, 35.755423], [139.720223, 35.755022], [139.722406, 35.753549], [139.722756, 35.751863], [139.721759, 35.748984], [139.722213, 35.747458], [139.721323, 35.747465], [139.72123, 35.746286], [139.720192, 35.746735], [139.719632, 35.745175], [139.710226, 35.745926], [139.708372, 35.742055], [139.703964, 35.737467], [139.703582, 35.735779], [139.701893, 35.7362], [139.700777, 35.74005], [139.699066, 35.739888], [139.698696, 35.742301], [139.694653, 35.74212], [139.694653, 35.743067], [139.692706, 35.743478], [139.689529, 35.741208], [139.680266, 35.738606], [139.678982, 35.740651], [139.680276, 35.741557], [139.680977, 35.743925], [139.675766, 35.745601], [139.672313, 35.74451], [139.674985, 35.751993], [139.673316, 35.754657], [139.673821, 35.758756], [139.67075, 35.762198], [139.668939, 35.767347], [139.654414, 35.769264], [139.647515, 35.768512], [139.642683, 35.770749], [139.64101, 35.768796], [139.634825, 35.768698], [139.633578, 35.770614], [139.630126, 35.772497], [139.629203, 35.771924], [139.629612, 35.776983], [139.625318, 35.777825], [139.625736, 35.77929], [139.624543, 35.779871], [139.628908, 35.785292], [139.630185, 35.785008], [139.631562, 35.786012], [139.632477, 35.787268], [139.632266, 35.789065], [139.635055, 35.790739], [139.637473, 35.790784], [139.639831, 35.793849], [139.639601, 35.795516], [139.640657, 35.795625], [139.640291, 35.79803], [139.642515, 35.797259], [139.644353, 35.798865], [139.648032, 35.797157], [139.654447, 35.800305], [139.668829, 35.800423], [139.679945, 35.798928], [139.691384, 35.80079], [139.695097, 35.79975], [139.69527, 35.797694], [139.690633, 35.790573], [139.689465, 35.786797], [139.691275, 35.784409], [139.69565, 35.782459], [139.699071, 35.78227], [139.702406, 35.784282], [139.704357, 35.773803], [139.706482, 35.767889]]]}, "properties": {"ward": "Itabashi", "wardJa": "板橋区", "centroidLat": 35.7512, "centroidLon": 139.7093}}, {"type": "Feature", "geometry": {"type": "Polygon", "coordinates": [[[139.680266, 35.738606], [139.678982, 35.740651], [139.680276, 35.741557], [139.680977, 35.743925], [139.675766, 35.745601], [139.672313, 35.74451], [139.674985, 35.751993], [139.673316, 35.754657], [139.673821, 35.758756], [139.67075, 35.762198], [139.668939, 35.767347], [139.654414, 35.769264], [139.647515, 35.768512], [139.642683, 35.770749], [139.64101, 35.768796], [139.634825, 35.768698], [139.633578, 35.770614], [139.630126, 35.772497], [139.629203, 35.771924], [139.629612, 35.776983], [139.625318, 35.777825], [139.625736, 35.77929], [139.624543, 35.779871], [139.624027, 35.77403], [139.625383, 35.772766], [139.624242, 35.771763], [139.623203, 35.766686], [139.617682, 35.766587], [139.617203, 35.770272], [139.61293, 35.770795], [139.611424, 35.769488], [139.611897, 35.770614], [139.611035, 35.771177], [139.608701, 35.769078], [139.60705, 35.769281], [139.606408, 35.771298], [139.604063, 35.770184], [139.603172, 35.77115], [139.598684, 35.769007], [139.597919, 35.769908], [139.598865, 35.770288], [139.597326, 35.7713], [139.602767, 35.775624], [139.596814, 35.77666], [139.597053, 35.77813], [139.594312, 35.778538], [139.593932, 35.777289], [139.588761, 35.778784], [139.58697, 35.775214], [139.584444, 35.775104], [139.584432, 35.773195], [139.581852, 35.772536], [139.582388, 35.771078], [139.581108, 35.772064], [139.580826, 35.771317], [139.578088, 35.771243], [139.577019, 35.767925], [139.574096, 35.768202], [139.574473, 35.766249], [139.57036, 35.765546], [139.571543, 35.76342], [139.568475, 35.76334], [139.565861, 35.761803], [139.564981, 35.762895], [139.563608, 35.762806], [139.562899, 35.761548], [139.563721, 35.761561], [139.56674, 35.755607], [139.568035, 35.755061], [139.569355, 35.751248], [139.569432, 35.74996], [139.567914, 35.750184], [139.569112, 35.747815], [139.566467, 35.74726], [139.568361, 35.741598], [139.568435, 35.738101], [139.567326, 35.736148], [139.56948, 35.734029], [139.566218, 35.727446], [139.565393, 35.721498], [139.575017, 35.718818], [139.581139, 35.714328], [139.58673, 35.711717], [139.586939, 35.713248], [139.585088, 35.716994], [139.586772, 35.719554], [139.590253, 35.720272], [139.593939, 35.718094], [139.595781, 35.722043], [139.599803, 35.723745], [139.601868, 35.725783], [139.620219, 35.731427], [139.619901, 35.730246], [139.624463, 35.730086], [139.627237, 35.735027], [139.63351, 35.735455], [139.635169, 35.732203], [139.636623, 35.731978], [139.637873, 35.728484], [139.639708, 35.727406], [139.639623, 35.726166], [139.647509, 35.72536], [139.647503, 35.726633], [139.650287, 35.726861], [139.659694, 35.725725], [139.659665, 35.726762], [139.663191, 35.727894], [139.664814, 35.731229], [139.668, 35.731355], [139.67125, 35.73371], [139.674785, 35.733105], [139.67799, 35.73062], [139.677649, 35.731772], [139.679245, 35.733297], [139.678555, 35.734468], [139.681143, 35.737726], [139.681083, 35.738754], [139.680266, 35.738606]]]}, "properties": {"ward": "Nerima", "wardJa": "練馬区", "centroidLat": 35.7356, "centroidLon": 139.6517}}, {"type": "Feature", "geometry": {"type": "Polygon", "coordinates": [[[139.813353, 35.759374], [139.819824, 35.760502], [139.820267, 35.755942], [139.822934, 35.755598], [139.824153, 35.761863], [139.827013, 35.762173], [139.825968, 35.761681], [139.825565, 35.758009], [139.829515, 35.757608], [139.830929, 35.758811], [139.830694, 35.762452], [139.831579, 35.763748], [139.837569, 35.763332], [139.837959, 35.766001], [139.841851, 35.766331], [139.845373, 35.769321], [139.85127, 35.7697], [139.85223, 35.765625], [139.856294, 35.764179], [139.858184, 35.7661], [139.858617, 35.769021], [139.857808, 35.770644], [139.84958, 35.779769], [139.845271, 35.787787], [139.844449, 35.794248], [139.846829, 35.796379], [139.84388, 35.799517], [139.837472, 35.800645], [139.832558, 35.795486], [139.827376, 35.793792], [139.822502, 35.795655], [139.819593, 35.799468], [139.820775, 35.805703], [139.822829, 35.809377], [139.82506, 35.81091], [139.825017, 35.81208], [139.823219, 35.814442], [139.821257, 35.815027], [139.819855, 35.812604], [139.820784, 35.811313], [139.819476, 35.811718], [139.814893, 35.808717], [139.803557, 35.80878], [139.7999, 35.806487], [139.794591, 35.805243], [139.780828, 35.807245], [139.772445, 35.816085], [139.769801, 35.817377], [139.766046, 35.817176], [139.765172, 35.815229], [139.759922, 35.812138], [139.755463, 35.812658], [139.754908, 35.810358], [139.752054, 35.811198], [139.750849, 35.810374], [139.75061, 35.806406], [139.760583, 35.797541], [139.759972, 35.794842], [139.755239, 35.790031], [139.756128, 35.788595], [139.755455, 35.787286], [139.749608, 35.785909], [139.746744, 35.786728], [139.746469, 35.784347], [139.745343, 35.783119], [139.738038, 35.780177], [139.738108, 35.777444], [139.735691, 35.772419], [139.737055, 35.770088], [139.746387, 35.767055], [139.758521, 35.769051], [139.760158, 35.765597], [139.748825, 35.759876], [139.748736, 35.757417], [139.751297, 35.756055], [139.764345, 35.754019], [139.782306, 35.754074], [139.788802, 35.752712], [139.791439, 35.749706], [139.788335, 35.746153], [139.791137, 35.741669], [139.794718, 35.739868], [139.802331, 35.738659], [139.811176, 35.741228], [139.814463, 35.739454], [139.817895, 35.74257], [139.820296, 35.743506], [139.814387, 35.752422], [139.815127, 35.75348], [139.81345, 35.75455], [139.813353, 35.759374]]]}, "properties": {"ward": "Adachi", "wardJa": "足立区", "centroidLat": 35.775, "centroidLon": 139.8044}}, {"type": "Feature", "geometry": {"type": "Polygon", "coordinates": [[[139.722311, 35.650742], [139.723926, 35.646729], [139.72273, 35.644643], [139.720974, 35.644134], [139.719389, 35.641202], [139.716764, 35.639911], [139.716676, 35.637915], [139.717943, 35.636141], [139.71735, 35.635139], [139.719327, 35.635326], [139.7198, 35.634336], [139.722235, 35.635897], [139.726213, 35.634889], [139.726866, 35.631893], [139.728707, 35.632927], [139.728222, 35.631867], [139.731076, 35.629962], [139.730871, 35.626636], [139.731918, 35.625415], [139.733796, 35.62598], [139.735309, 35.623036], [139.738233, 35.623679], [139.73801, 35.624953], [139.739455, 35.624149], [139.743474, 35.625115], [139.744285, 35.623386], [139.746441, 35.623134], [139.75122, 35.625274], [139.752718, 35.625324], [139.752656, 35.624207], [139.753485, 35.624065], [139.757684, 35.624298], [139.757541, 35.627735], [139.759433, 35.627773], [139.766087, 35.627772], [139.76879, 35.626465], [139.771221, 35.623545], [139.78293, 35.630497], [139.777029, 35.637582], [139.768166, 35.640201], [139.764096, 35.648258], [139.765965, 35.655477], [139.759521, 35.658997], [139.763192, 35.663987], [139.762372, 35.666811], [139.7521, 35.670626], [139.749476, 35.670933], [139.747606, 35.669602], [139.743135, 35.671372], [139.738918, 35.673741], [139.736564, 35.678809], [139.733673, 35.678984], [139.730002, 35.682487], [139.728126, 35.682634], [139.726443, 35.679738], [139.724141, 35.678677], [139.719777, 35.679163], [139.719164, 35.678573], [139.719862, 35.675339], [139.716274, 35.673221], [139.716477, 35.672151], [139.714837, 35.672949], [139.714002, 35.67036], [139.715095, 35.669645], [139.708744, 35.664182], [139.713971, 35.659744], [139.712619, 35.65859], [139.7146, 35.657216], [139.722081, 35.655747], [139.722965, 35.656366], [139.721655, 35.653653], [139.722311, 35.650742]]]}, "properties": {"ward": "Minato", "wardJa": "港区", "centroidLat": 35.6581, "centroidLon": 139.7516}}, {"type": "Feature", "geometry": {"type": "Polygon", "coordinates": [[[139.815524, 35.750988], [139.825369, 35.73545], [139.850978, 35.71087], [139.856668, 35.714268], [139.859859, 35.713751], [139.860835, 35.714453], [139.8624, 35.713014], [139.864962, 35.713246], [139.867764, 35.712123], [139.868391, 35.714614], [139.866238, 35.718578], [139.868693, 35.724055], [139.870918, 35.724749], [139.869965, 35.728917], [139.871827, 35.729561], [139.872411, 35.734491], [139.874228, 35.736041], [139.872806, 35.737445], [139.876638, 35.73695], [139.87761, 35.739485], [139.876749, 35.741043], [139.880203, 35.74032], [139.879784, 35.741548], [139.882316, 35.743372], [139.882046, 35.744245], [139.884911, 35.745525], [139.883951, 35.747391], [139.88288, 35.747301], [139.88307, 35.748253], [139.880372, 35.748593], [139.880658, 35.749692], [139.882773, 35.749364], [139.889686, 35.751213], [139.883204, 35.758624], [139.88247, 35.762584], [139.879457, 35.767525], [139.879843, 35.769726], [139.881747, 35.772859], [139.893413, 35.778316], [139.894327, 35.781644], [139.893773, 35.782747], [139.88758, 35.784018], [139.881149, 35.78198], [139.880475, 35.782615], [139.876995, 35.78166], [139.872736, 35.782244], [139.87116, 35.784651], [139.871312, 35.788383], [139.876638, 35.792634], [139.877565, 35.79486], [139.873897, 35.797137], [139.868813, 35.796965], [139.863708, 35.79476], [139.859634, 35.795297], [139.856064, 35.790832], [139.846631, 35.79621], [139.844655, 35.794632], [139.844206, 35.792849], [139.845271, 35.787787], [139.84958, 35.779769], [139.857808, 35.770644], [139.858617, 35.769021], [139.858184, 35.7661], [139.856294, 35.764179], [139.85223, 35.765625], [139.85127, 35.7697], [139.845373, 35.769321], [139.841851, 35.766331], [139.837959, 35.766001], [139.837569, 35.763332], [139.831579, 35.763748], [139.830694, 35.762452], [139.830929, 35.758811], [139.829515, 35.757608], [139.825565, 35.758009], [139.825968, 35.761681], [139.827013, 35.762173], [139.824153, 35.761863], [139.822934, 35.755598], [139.820267, 35.755942], [139.819824, 35.760502], [139.813485, 35.759456], [139.81345, 35.75455], [139.815127, 35.75348], [139.814387, 35.752422], [139.815524, 35.750988]]]}, "properties": {"ward": "Katsushika", "wardJa": "葛飾区", "centroidLat": 35.7434, "centroidLon": 139.8474}}, {"type": "Feature", "geometry": {"type": "Polygon", "coordinates": [[[139.769958, 35.705235], [139.773268, 35.705006], [139.773393, 35.701753], [139.775653, 35.701523], [139.775574, 35.700588], [139.780561, 35.70015], [139.780164, 35.697844], [139.782848, 35.697627], [139.781605, 35.695247], [139.782757, 35.694664], [139.780287, 35.692839], [139.767935, 35.688591], [139.770385, 35.686244], [139.770938, 35.683805], [139.767097, 35.677018], [139.763889, 35.673351], [139.760642, 35.672328], [139.758555, 35.66863], [139.749476, 35.670933], [139.747606, 35.669602], [139.743135, 35.671372], [139.738918, 35.673741], [139.736564, 35.678809], [139.733673, 35.678984], [139.731765, 35.681444], [139.730135, 35.685017], [139.73131, 35.68876], [139.73782, 35.693454], [139.743468, 35.700119], [139.744431, 35.702474], [139.749111, 35.702928], [139.761298, 35.701562], [139.763456, 35.700261], [139.768323, 35.699489], [139.76867, 35.700544], [139.766205, 35.701824], [139.766562, 35.702701], [139.769856, 35.703713], [139.769958, 35.705235]]]}, "properties": {"ward": "Chiyoda", "wardJa": "千代田区", "centroidLat": 35.694, "centroidLon": 139.7536}}, {"type": "Feature", "geometry": {"type": "Polygon", "coordinates": [[[139.842831, 35.719008], [139.839202, 35.716795], [139.837291, 35.717917], [139.834991, 35.717783], [139.833124, 35.715581], [139.834531, 35.713044], [139.839793, 35.710099], [139.834872, 35.705896], [139.834537, 35.70419], [139.844674, 35.698959], [139.848008, 35.693743], [139.847681, 35.68859], [139.846024, 35.683827], [139.846766, 35.682986], [139.845642, 35.681218], [139.848543, 35.679654], [139.847015, 35.67505], [139.845734, 35.658697], [139.846474, 35.654375], [139.842476, 35.591532], [139.834757, 35.601137], [139.797422, 35.580991], [139.857815, 35.530828], [139.857845, 35.601831], [139.869109, 35.621988], [139.869689, 35.633037], [139.873781, 35.639834], [139.883491, 35.645119], [139.8869, 35.653734], [139.887364, 35.667921], [139.885527, 35.67277], [139.886428, 35.678566], [139.892041, 35.681644], [139.903784, 35.683116], [139.90715, 35.684384], [139.913848, 35.69093], [139.918888, 35.698919], [139.91618, 35.708013], [139.908119, 35.713862], [139.904775, 35.718885], [139.897978, 35.724289], [139.897258, 35.729278], [139.900881, 35.737458], [139.900678, 35.741351], [139.898554, 35.74541], [139.892874, 35.748082], [139.889686, 35.751213], [139.882773, 35.749364], [139.880658, 35.749692], [139.880372, 35.748593], [139.88307, 35.748253], [139.88288, 35.747301], [139.883951, 35.747391], [139.884911, 35.745525], [139.882046, 35.744245], [139.882316, 35.743372], [139.879784, 35.741548], [139.880203, 35.74032], [139.876749, 35.741043], [139.87761, 35.739485], [139.876638, 35.73695], [139.872806, 35.737445], [139.874228, 35.736041], [139.872411, 35.734491], [139.871827, 35.729561], [139.869965, 35.728917], [139.870918, 35.724749], [139.868693, 35.724055], [139.866238, 35.718578], [139.868391, 35.714614], [139.867764, 35.712123], [139.864962, 35.713246], [139.8624, 35.713014], [139.860835, 35.714453], [139.859859, 35.713751], [139.856668, 35.714268], [139.850978, 35.71087], [139.842831, 35.719008]]]}, "properties": {"ward": "Edogawa", "wardJa": "江戸川区", "centroidLat": 35.7067, "centroidLon": 139.8683}}, {"type": "Feature", "geometry": {"type": "Polygon", "coordinates": [[[139.788815, 35.663407], [139.786785, 35.674137], [139.793153, 35.685026], [139.79047, 35.689212], [139.793449, 35.690717], [139.796399, 35.689915], [139.796679, 35.688555], [139.799567, 35.689919], [139.800579, 35.688136], [139.8047, 35.688347], [139.804848, 35.686699], [139.809558, 35.686944], [139.809415, 35.688587], [139.811726, 35.688779], [139.811365, 35.692072], [139.813314, 35.692178], [139.813243, 35.692973], [139.819646, 35.693326], [139.81864, 35.708092], [139.830789, 35.703006], [139.835453, 35.703182], [139.84439, 35.699176], [139.846476, 35.696994], [139.848057, 35.691945], [139.846024, 35.683827], [139.846766, 35.682986], [139.845642, 35.681218], [139.848543, 35.679654], [139.847015, 35.67505], [139.845734, 35.658697], [139.846474, 35.654375], [139.842476, 35.591532], [139.834757, 35.601137], [139.811706, 35.588649], [139.804437, 35.597683], [139.788571, 35.58887], [139.784451, 35.591295], [139.781812, 35.596844], [139.771834, 35.608812], [139.766725, 35.616626], [139.773647, 35.620363], [139.771221, 35.623545], [139.78293, 35.630497], [139.777029, 35.637582], [139.768166, 35.640201], [139.789773, 35.654184], [139.788815, 35.663407]]]}, "properties": {"ward": "Koto", "wardJa": "江東区", "centroidLat": 35.6728, "centroidLon": 139.817}}, {"type": "Feature", "geometry": {"type": "Polygon", "coordinates": [[[139.714519, 35.629195], [139.704069, 35.624772], [139.700855, 35.626132], [139.696218, 35.624955], [139.703976, 35.622022], [139.698322, 35.615236], [139.695799, 35.613594], [139.695187, 35.608106], [139.697414, 35.604572], [139.700869, 35.601602], [139.714873, 35.599906], [139.714029, 35.599152], [139.714525, 35.597432], [139.717577, 35.596507], [139.719154, 35.592021], [139.720991, 35.594431], [139.728079, 35.594548], [139.730385, 35.592156], [139.729249, 35.589586], [139.729909, 35.587279], [139.735767, 35.587243], [139.735773, 35.587933], [139.738264, 35.587729], [139.747966, 35.590594], [139.748489, 35.588863], [139.75055, 35.589876], [139.755256, 35.589717], [139.755422, 35.584491], [139.762898, 35.584665], [139.762328, 35.594946], [139.765336, 35.594886], [139.767099, 35.592535], [139.779902, 35.599025], [139.766725, 35.616626], [139.773647, 35.620363], [139.76879, 35.626465], [139.766706, 35.627506], [139.757541, 35.627735], [139.757684, 35.624298], [139.753485, 35.624065], [139.752656, 35.624207], [139.752718, 35.625324], [139.75122, 35.625274], [139.746441, 35.623134], [139.744285, 35.623386], [139.743474, 35.625115], [139.739455, 35.624149], [139.73801, 35.624953], [139.738233, 35.623679], [139.735309, 35.623036], [139.733796, 35.62598], [139.731918, 35.625415], [139.730871, 35.626636], [139.731076, 35.629962], [139.728222, 35.631867], [139.728707, 35.632927], [139.726866, 35.631893], [139.726213, 35.634889], [139.722235, 35.635897], [139.7198, 35.634336], [139.719327, 35.635326], [139.71735, 35.635139], [139.717943, 35.636141], [139.716676, 35.637915], [139.716764, 35.639911], [139.718966, 35.641594], [139.71559, 35.640641], [139.713957, 35.638102], [139.713197, 35.638632], [139.713837, 35.638086], [139.713407, 35.635528], [139.714631, 35.634262], [139.714275, 35.631559], [139.715209, 35.630012], [139.714519, 35.629195]]]}, "properties": {"ward": "Shinagawa", "wardJa": "品川区", "centroidLat": 35.6092, "centroidLon": 139.7302}}]}